STARLINK-2102
1 27382C 21005AK  21325.11865726  .00009018  00000-0  60431-3 0  3259
2 27382  53.0519 237.6898 0001947  67.6936  69.8936 15.06381771    11
